{
  "type": "FeatureCollection",
  "features": [
    {
      "type": "Feature",
      "properties": {
        "norad_id": 36036,
        "name": "SMOS",
        "group": "resource",
        "lat": -63.91539694563075,
        "lon": -163.25629357967884,
        "alt_km": 767.1583636900141,
        "timestamp": "2025-12-20T03:42:47.048864+00:00",
        "meta_object_name": "SMOS",
        "meta_object_id": "2009-059A",
        "meta_epoch": "2025-12-19T11:20:10.902624",
        "meta_mean_motion": 14.39746894,
        "meta_eccentricity": 0.0001083,
        "meta_inclination": 98.438,
        "meta_ra_of_asc_node": 178.4211,
        "meta_arg_of_pericenter": 82.411,
        "meta_mean_anomaly": 277.7201,
        "meta_ephemeris_type": 0,
        "meta_classification_type": "U",
        "meta_norad_cat_id": 36036,
        "meta_element_set_no": 999,
        "meta_rev_at_epoch": 84759,
        "meta_bstar": 0.00010424,
        "meta_mean_motion_dot": 2.83e-06,
        "meta_mean_motion_ddot": 0,
        "tle_line1": "1 36036U 09059A   25353.47234841  .00000283  00000+0  10424-3 0  9998",
        "tle_line2": "2 36036  98.4380 178.4211 0001083  82.4110 277.7201 14.39746894847598"
      },
      "geometry": {
        "type": "Point",
        "coordinates": [
          -163.25629357967884,
          -63.91539694563075
        ]
      }
    },
    {
      "type": "Feature",
      "properties": {
        "norad_id": 36110,
        "name": "YAOGAN-7",
        "group": "resource",
        "lat": 51.638868708395115,
        "lon": -134.3890518249129,
        "alt_km": 646.6717685140375,
        "timestamp": "2025-12-20T03:42:47.048874+00:00",
        "meta_object_name": "YAOGAN-7",
        "meta_object_id": "2009-069A",
        "meta_epoch": "2025-12-19T04:43:30.237600",
        "meta_mean_motion": 14.77741395,
        "meta_eccentricity": 0.0023351,
        "meta_inclination": 98.0297,
        "meta_ra_of_asc_node": 234.9307,
        "meta_arg_of_pericenter": 259.2514,
        "meta_mean_anomaly": 100.6067,
        "meta_ephemeris_type": 0,
        "meta_classification_type": "U",
        "meta_norad_cat_id": 36110,
        "meta_element_set_no": 999,
        "meta_rev_at_epoch": 86304,
        "meta_bstar": 7.003e-05,
        "meta_mean_motion_dot": 4.51e-06,
        "meta_mean_motion_ddot": 0,
        "tle_line1": "1 36110U 09069A   25353.19687775  .00000451  00000+0  70030-4 0  9996",
        "tle_line2": "2 36110  98.0297 234.9307 0023351 259.2514 100.6067 14.77741395863047"
      },
      "geometry": {
        "type": "Point",
        "coordinates": [
          -134.3890518249129,
          51.638868708395115
        ]
      }
    },
    {
      "type": "Feature",
      "properties": {
        "norad_id": 36605,
        "name": "TANDEM-X",
        "group": "resource",
        "lat": -38.23344685379211,
        "lon": 5.339628263190105,
        "alt_km": 515.4236964299116,
        "timestamp": "2025-12-20T03:42:47.048885+00:00",
        "meta_object_name": "TANDEM-X",
        "meta_object_id": "2010-030A",
        "meta_epoch": "2025-12-19T12:04:27.806304",
        "meta_mean_motion": 15.19152689,
        "meta_eccentricity": 0.0001806,
        "meta_inclination": 97.4444,
        "meta_ra_of_asc_node": 358.7845,
        "meta_arg_of_pericenter": 78.9569,
        "meta_mean_anomaly": 281.1868,
        "meta_ephemeris_type": 0,
        "meta_classification_type": "U",
        "meta_norad_cat_id": 36605,
        "meta_element_set_no": 999,
        "meta_rev_at_epoch": 85936,
        "meta_bstar": 3.4902e-05,
        "meta_mean_motion_dot": 6.66e-06,
        "meta_mean_motion_ddot": 0,
        "tle_line1": "1 36605U 10030A   25353.50309961  .00000666  00000+0  34902-4 0  9994",
        "tle_line2": "2 36605  97.4444 358.7845 0001806  78.9569 281.1868 15.19152689859365"
      },
      "geometry": {
        "type": "Point",
        "coordinates": [
          5.339628263190105,
          -38.23344685379211
        ]
      }
    },
    {
      "type": "Feature",
      "properties": {
        "norad_id": 36795,
        "name": "CARTOSAT-2B",
        "group": "resource",
        "lat": 5.737340339625994,
        "lon": 42.156846120950036,
        "alt_km": 629.615285271454,
        "timestamp": "2025-12-20T03:42:47.048894+00:00",
        "meta_object_name": "CARTOSAT-2B",
        "meta_object_id": "2010-035A",
        "meta_epoch": "2025-12-19T21:11:27.572064",
        "meta_mean_motion": 14.78732465,
        "meta_eccentricity": 0.0012847,
        "meta_inclination": 97.7848,
        "meta_ra_of_asc_node": 42.6815,
        "meta_arg_of_pericenter": 55.4614,
        "meta_mean_anomaly": 304.7809,
        "meta_ephemeris_type": 0,
        "meta_classification_type": "U",
        "meta_norad_cat_id": 36795,
        "meta_element_set_no": 999,
        "meta_rev_at_epoch": 83335,
        "meta_bstar": 1.1855e-05,
        "meta_mean_motion_dot": 3.7e-07,
        "meta_mean_motion_ddot": 0,
        "tle_line1": "1 36795U 10035A   25353.88295801  .00000037  00000+0  11855-4 0  9991",
        "tle_line2": "2 36795  97.7848  42.6815 0012847  55.4614 304.7809 14.78732465833358"
      },
      "geometry": {
        "type": "Point",
        "coordinates": [
          42.156846120950036,
          5.737340339625994
        ]
      }
    },
    {
      "type": "Feature",
      "properties": {
        "norad_id": 36834,
        "name": "YAOGAN-10",
        "group": "resource",
        "lat": -62.33243428717155,
        "lon": 178.53506081211512,
        "alt_km": 622.8994261177713,
        "timestamp": "2025-12-20T03:42:47.048905+00:00",
        "meta_object_name": "YAOGAN-10",
        "meta_object_id": "2010-038A",
        "meta_epoch": "2025-12-19T20:36:47.162016",
        "meta_mean_motion": 14.84633897,
        "meta_eccentricity": 0.0001446,
        "meta_inclination": 97.9136,
        "meta_ra_of_asc_node": 13.6266,
        "meta_arg_of_pericenter": 79.3553,
        "meta_mean_anomaly": 23.8226,
        "meta_ephemeris_type": 0,
        "meta_classification_type": "U",
        "meta_norad_cat_id": 36834,
        "meta_element_set_no": 999,
        "meta_rev_at_epoch": 83059,
        "meta_bstar": 0.00018161,
        "meta_mean_motion_dot": 1.481e-05,
        "meta_mean_motion_ddot": 0,
        "tle_line1": "1 36834U 10038A   25353.85887919  .00001481  00000+0  18161-3 0  9992",
        "tle_line2": "2 36834  97.9136  13.6266 0001446  79.3553  23.8226 14.84633897830593"
      },
      "geometry": {
        "type": "Point",
        "coordinates": [
          178.53506081211512,
          -62.33243428717155
        ]
      }
    },
    {
      "type": "Feature",
      "properties": {
        "norad_id": 37216,
        "name": "COSMO-SKYMED 4",
        "group": "resource",
        "lat": 76.76293114907095,
        "lon": 31.4349671068407,
        "alt_km": 614.3743269924644,
        "timestamp": "2025-12-20T03:42:47.048915+00:00",
        "meta_object_name": "COSMO-SKYMED 4",
        "meta_object_id": "2010-060A",
        "meta_epoch": "2025-12-19T19:09:34.046208",
        "meta_mean_motion": 14.82153117,
        "meta_eccentricity": 0.0001393,
        "meta_inclination": 97.8798,
        "meta_ra_of_asc_node": 175.0147,
        "meta_arg_of_pericenter": 83.5261,
        "meta_mean_anomaly": 276.6111,
        "meta_ephemeris_type": 0,
        "meta_classification_type": "U",
        "meta_norad_cat_id": 37216,
        "meta_element_set_no": 999,
        "meta_rev_at_epoch": 81799,
        "meta_bstar": 9.3117e-05,
        "meta_mean_motion_dot": 6.89e-06,
        "meta_mean_motion_ddot": 0,
        "tle_line1": "1 37216U 10060A   25353.79831072  .00000689  00000+0  93117-4 0  9998",
        "tle_line2": "2 37216  97.8798 175.0147 0001393  83.5261 276.6111 14.82153117817996"
      },
      "geometry": {
        "type": "Point",
        "coordinates": [
          31.4349671068407,
          76.76293114907095
        ]
      }
    },
    {
      "type": "Feature",
      "properties": {
        "norad_id": 37387,
        "name": "RESOURCESAT-2",
        "group": "resource",
        "lat": -69.99947419097393,
        "lon": -147.47417552878406,
        "alt_km": 830.0628658755722,
        "timestamp": "2025-12-20T03:42:47.048925+00:00",
        "meta_object_name": "RESOURCESAT-2",
        "meta_object_id": "2011-015A",
        "meta_epoch": "2025-12-19T18:05:07.723104",
        "meta_mean_motion": 14.21599895,
        "meta_eccentricity": 0.0006104,
        "meta_inclination": 98.7868,
        "meta_ra_of_asc_node": 57.2736,
        "meta_arg_of_pericenter": 23.8081,
        "meta_mean_anomaly": 336.3377,
        "meta_ephemeris_type": 0,
        "meta_classification_type": "U",
        "meta_norad_cat_id": 37387,
        "meta_element_set_no": 999,
        "meta_rev_at_epoch": 76068,
        "meta_bstar": 6.7683e-05,
        "meta_mean_motion_dot": 1.04e-06,
        "meta_mean_motion_ddot": 0,
        "tle_line1": "1 37387U 11015A   25353.75356161  .00000104  00000+0  67683-4 0  9996",
        "tle_line2": "2 37387  98.7868  57.2736 0006104  23.8081 336.3377 14.21599895760681"
      },
      "geometry": {
        "type": "Point",
        "coordinates": [
          -147.47417552878406,
          -69.99947419097393
        ]
      }
    }
  ]
}